STARLINK-4541           
1 53427U 22097AR  24040.94801022  .00000053  00000+0  21436-4 0  9994
2 53427  53.2168 280.2486 0001480  86.4046 273.7115 15.08842331 83629
STARLINK-4540           
1 53428U 22097AS  24040.78334114 -.00001516  00000+0 -77197-4 0  9992
2 53428  53.2166 271.0544 0001567 112.9872 247.1286 15.08838602 83731
STARLINK-4543           
1 53429U 22097AT  24040.78702165  .00001206  00000+0  93840-4 0  9995
2 53429  53.2167 271.0792 0001420 103.2800 256.8351 15.08836029 83731
STARLINK-4538           
1 53430U 22097AU  24041.04461255  .00000416  00000+0  44235-4 0  9995
2 53430  53.2160 269.8472 0001337 103.6332 256.4809 15.08839096 83772
STARLINK-4548           
1 53431U 22097AV  24040.80536446  .00000758  00000+0  65707-4 0  9990
2 53431  53.2152 270.5006 0001141  75.4179 284.6939 15.08836601 83747
STARLINK-4557           
1 53432U 22097AW  24041.01881754  .00002118  00000+0  15112-3 0  9996
2 53432  53.2174 269.6869 0001400  76.7637 283.3512 15.08843975 83777
STARLINK-4549           
1 53433U 22097AX  24040.77597080  .00001517  00000+0  11338-3 0  9993
2 53433  53.2163 271.0165 0001211  84.8692 275.2438 15.08833737 83731
STARLINK-4498           
1 53434U 22097AY  24041.01513470  .00000087  00000+0  23541-4 0  9994
2 53434  53.2168 269.6658 0001147  97.0915 263.0208 15.08845202 83773
STARLINK-4542           
1 53435U 22097AZ  24040.82378405 -.00001163  00000+0 -55021-4 0  9996
2 53435  53.2150 270.6035 0001154  82.0863 278.0260 15.08831503 83740
STARLINK-4527           
1 53436U 22097BA  24041.01145378  .00000990  00000+0  80266-4 0  9994
2 53436  53.2162 269.6432 0001147  82.6064 277.5059 15.08836108 83773
STARLINK-4526           
1 53438U 22097BC  24040.80905133 -.00002481  00000+0 -13780-3 0  9990
2 53438  53.2178 270.5167 0001755 129.2208 230.8940 15.08842425 83748
STARLINK-4519           
1 53439U 22097BD  24040.82105985  .00001509  00000+0  11287-3 0  9998
2 53439  53.2181 270.5846 0001438  92.8328 267.2828 15.08837194 83749
STARLINK-4415           
1 53465U 22099A   24040.82376779 -.00001046  00000+0 -76834-4 0  9998
2 53465  97.6577 163.5035 0000411 283.4294  76.6884 15.01265787 82378
STARLINK-4398           
1 53466U 22099B   24040.29079026  .00001060  00000+0  87064-4 0  9996
2 53466  97.6578 162.9712 0001797 269.1846  90.9173 15.01265470 82040
STARLINK-4394           
1 53467U 22099C   24040.88672033  .00000224  00000+0  22053-4 0  9997
2 53467  97.6554 163.6234 0001368 101.0389 259.0989 15.01257412 82378
STARLINK-4400           
1 53468U 22099D   24040.88696914  .00001193  00000+0  97493-4 0  9998
2 53468  97.6565 163.5647 0000727 112.7885 247.3416 15.01255805 82375
STARLINK-4399           
1 53469U 22099E   24040.81636598  .00001699  00000+0  13684-3 0  9994
2 53469  97.6574 163.5030 0000862  14.0927 346.0321 15.01257003 82366
STARLINK-4393           
1 53470U 22099F   24040.88487330  .00002075  00000+0  16610-3 0  9992
2 53470  97.6555 163.5645 0000523 132.1819 227.9449 15.01250832 82377
STARLINK-4316           
1 53471U 22099G   24040.81266907  .00000982  00000+0  81040-4 0  9996
2 53471  97.6547 163.4977 0002141  72.0977 288.0480 15.01256660 82368
STARLINK-4447           
1 53472U 22099H   24040.88117391  .00000500  00000+0  43527-4 0  9990
2 53472  97.6562 163.5671 0001546  85.1816 274.9585 15.01252835 82374
STARLINK-4383           
1 53473U 22099J   24040.87561935  .00001990  00000+0  15948-3 0  9996
2 53473  97.6555 163.5615 0002038  89.9730 270.1728 15.01257718 82371
STARLINK-4445           
1 53474U 22099K   24040.93510986  .00002102  00000+0  16822-3 0  9992
2 53474  97.6543 163.6185 0001563  85.8480 274.2923 15.01257761 82382
STARLINK-4389           
1 53475U 22099L   24040.87377240 -.00000461  00000+0 -31313-4 0  9991
2 53475  97.6549 163.5587 0001658  91.8172 268.3242 15.01257328 82370
STARLINK-4378           
1 53476U 22099M   24040.87747081 -.00000337  00000+0 -21632-4 0  9991
2 53476  97.6559 163.5628 0002070  84.2619 275.8841 15.01253040 82374
STARLINK-4412           
1 53477U 22099N   24040.87586320  .00002396  00000+0  19106-3 0  9996
2 53477  97.6554 163.5487 0002141 102.4263 257.7201 15.01260148 82376
STARLINK-4433           
1 53478U 22099P   24040.80341097  .00002212  00000+0  17680-3 0  9992
2 53478  97.6602 163.5090 0001971  68.7773 291.3661 15.01258542 82369
STARLINK-4436           
1 53479U 22099Q   24040.33498834  .00002715  00000+0  21585-3 0  9990
2 53479  97.6547 163.0261 0001560  78.4198 281.7201 15.01268605 82056
STARLINK-4442           
1 53480U 22099R   24040.80526030  .00000215  00000+0  21310-4 0  9994
2 53480  97.6542 163.4911 0001168  52.1284 308.0045 15.01262260 82362
STARLINK-4302           
1 53481U 22099S   24040.79971054  .00001420  00000+0  11516-3 0  9998
2 53481  97.6533 163.4827 0001848  88.8998 271.2438 15.01258167 82360
STARLINK-4360           
1 53482U 22099T   24040.92190127  .00002851  00000+0  22648-3 0  9995
2 53482  97.6540 163.6198 0001820  70.7760 289.3661 15.01255837 82380
STARLINK-4401           
1 53483U 22099U   24040.92004963 -.00000512  00000+0 -35321-4 0  9995
2 53483  97.6534 163.6086 0000861  99.0023 261.1299 15.01252617 82388
STARLINK-4426           
1 53484U 22099V   24040.79785486  .00003860  00000+0  30497-3 0  9992
2 53484  97.6543 163.4808 0001600  43.9881 316.1470 15.01258017 82361
STARLINK-4430           
1 53485U 22099W   24040.92560927 -.00000118  00000+0 -46010-5 0  9994
2 53485  97.6543 163.5981 0001169  96.8962 263.2395 15.01252866 82388
STARLINK-4431           
1 53486U 22099X   24040.92930906  .00001076  00000+0  88320-4 0  9994
2 53486  97.6525 163.6061 0001401  89.8849 270.2536 15.01255933 82387
STARLINK-4432           
1 53487U 22099Y   24040.92955622  .00001128  00000+0  92442-4 0  9995
2 53487  97.6537 163.5880 0001448  99.4175 260.7213 15.01254204 82385
STARLINK-4421           
1 53488U 22099Z   24040.86080902  .00000460  00000+0  40420-4 0  9996
2 53488  97.6546 163.5350 0001273  95.8346 264.3023 15.01249786 82371
STARLINK-4392           
1 53489U 22099AA  24040.92769470 -.00006868  00000+0 -53028-3 0  9995
2 53489  97.6542 163.5836 0001101 121.5077 238.6255 15.01288000 82389
STARLINK-4387           
1 53490U 22099AB  24040.92375355  .00001428  00000+0  11576-3 0  9999
2 53490  97.6543 163.5954 0001293  98.1757 261.9614 15.01254895 82382
STARLINK-4450           
1 53491U 22099AC  24040.91288533  .00001119  00000+0  91692-4 0  9995
2 53491  97.6535 163.5904 0000639 256.7836 103.3317 15.01258456 82388
STARLINK-4451           
1 53492U 22099AD  24040.91819600  .00000511  00000+0  44355-4 0  9990
2 53492  97.6541 163.5922 0000488 141.3316 218.7943 15.01256536 82383
STARLINK-4361           
1 53493U 22099AE  24040.91634856  .00000657  00000+0  55721-4 0  9999
2 53493  97.6537 163.5787 0000144  47.9231 312.2005 15.01252155 82386
STARLINK-4340           
1 53494U 22099AF  24040.92029573  .00000452  00000+0  39797-4 0  9993
2 53494  97.6541 163.5850 0000805 107.3917 252.7395 15.01255664 82387
STARLINK-4429           
1 53495U 22099AG  24040.91078985  .00000318  00000+0  29315-4 0  9990
2 53495  97.6529 163.5794 0000940 258.8935 101.2184 15.01251277 82394
STARLINK-4465           
1 53496U 22099AH  24040.91449819  .00003665  00000+0  28990-3 0  9994
2 53496  97.6533 163.5834 0001050 281.1345  78.9761 15.01250020 82387
STARLINK-4453           
1 53497U 22099AJ  24040.90708495  .00000573  00000+0  49241-4 0  9990
2 53497  97.6547 163.5756 0003133 257.7151 102.3723 15.01250203 82398
STARLINK-4439           
1 53498U 22099AK  24040.90732605  .00000735  00000+0  61829-4 0  9997
2 53498  97.6543 163.5870 0003394 257.1227 102.9619 15.01254596 82387
STARLINK-4454           
1 53499U 22099AL  24040.91264433  .00002803  00000+0  22284-3 0  9997
2 53499  97.6534 163.5653 0000742 252.3746 107.7397 15.01247236 82383
STARLINK-4455           
1 53500U 22099AM  24040.90893510  .00000457  00000+0  40145-4 0  9993
2 53500  97.6536 163.5768 0002096 255.8056 104.2935 15.01255873 82398
STARLINK-4434           
1 53501U 22099AN  24041.00001157  .00352609  00000+0  26318-1 0  9996
2 53501  97.6560 163.6734 0002372 115.1200  67.1532 15.00955543 82396
STARLINK-4435           
1 53502U 22099AP  24040.90523701  .00004242  00000+0  33476-3 0  9991
2 53502  97.6541 163.5718 0003524 257.7123 102.3707 15.01242411 82383
STARLINK-4461           
1 53503U 22099AQ  24040.58334491  .00021996  00000+0  17497-2 0  9991
2 53503  97.6554 163.2537 0000453 250.6332 192.7189 15.00420950  5800
STARLINK-4448           
1 53504U 22099AR  24040.83672219  .00002120  00000+0  16960-3 0  9996
2 53504  97.6550 163.5051 0004657 248.0044 112.0685 15.01259392 82376
STARLINK-4446           
1 53505U 22099AS  24040.82932073  .00001218  00000+0  99387-4 0  9995
2 53505  97.6575 163.5005 0003033 257.5372 102.5513 15.01257456 82372
STARLINK-4437           
1 53506U 22099AT  24040.90152792 -.00000711  00000+0 -50740-4 0  9996
2 53506  97.6550 163.5616 0004090 253.4286 106.6489 15.01256667 82388
STARLINK-4444           
1 53507U 22099AU  24040.82747124  .00000814  00000+0  68001-4 0  9998
2 53507  97.6590 163.5035 0002354 262.2568  97.8388 15.01258430 82378
STARLINK-4443           
1 53508U 22099AV  24040.89782381  .00000584  00000+0  50076-4 0  9997
2 53508  97.6559 163.5653 0003607 260.4958  99.5859 15.01256319 82382
STARLINK-4402           
1 53509U 22099AW  24040.29239758  .00000621  00000+0  52956-4 0  9998
2 53509  97.6583 162.9725 0001964 266.2250  93.8749 15.01265534 82054
STARLINK-4441           
1 53510U 22099AX  24040.82192283  .00002106  00000+0  16854-3 0  9996
2 53510  97.6603 163.5142 0001238  35.1772 324.9533 15.01256210 82370
STARLINK-4511           
1 53527U 22101A   24040.79712883  .00000633  00000+0  57840-4 0  9992
2 53527  53.2157 240.9229 0001170  93.0762 267.0364 15.08834521 81599
